CCSDS_OMM_VERS = 2.0
CREATION_DATE  = 
ORIGINATOR     = 

OBJECT_NAME    = STARLINK-37059
OBJECT_ID      = 2026-042V
CENTER_NAME    = EARTH
REF_FRAME      = TEME
TIME_SYSTEM    = UTC
MEAN_ELEMENT_THEORY = SGP/SGP4

EPOCH          = 2026-03-25T22:18:17.700192
MEAN_MOTION    = 15.80945196
ECCENTRICITY   = .0000875
INCLINATION    = 53.1574
RA_OF_ASC_NODE = 113.2224
ARG_OF_PERICENTER = 114.8274
MEAN_ANOMALY   = 245.2840

EPHEMERIS_TYPE = 0
CLASSIFICATION_TYPE = U
NORAD_CAT_ID   = 68088
ELEMENT_SET_NO = 999
REV_AT_EPOCH   = 465
BSTAR          = .80126E-3
MEAN_MOTION_DOT = .160959E-2
MEAN_MOTION_DDOT = 0

CCSDS_OMM_VERS = 2.0
CREATION_DATE  = 
ORIGINATOR     = 

OBJECT_NAME    = STARLINK-37004
OBJECT_ID      = 2026-042W
CENTER_NAME    = EARTH
REF_FRAME      = TEME
TIME_SYSTEM    = UTC
MEAN_ELEMENT_THEORY = SGP/SGP4

EPOCH          = 2026-03-26T04:21:23.524128
MEAN_MOTION    = 15.80683396
ECCENTRICITY   = .0000934
INCLINATION    = 53.1574
RA_OF_ASC_NODE = 111.9507
ARG_OF_PERICENTER = 103.1765
MEAN_ANOMALY   = 256.9361

EPHEMERIS_TYPE = 0
CLASSIFICATION_TYPE = U
NORAD_CAT_ID   = 68089
ELEMENT_SET_NO = 999
REV_AT_EPOCH   = 469
BSTAR          = -.12771E-2
MEAN_MOTION_DOT = -.243638E-2
MEAN_MOTION_DDOT = 0

CCSDS_OMM_VERS = 2.0
CREATION_DATE  = 
ORIGINATOR     = 

OBJECT_NAME    = STARLINK-36320
OBJECT_ID      = 2026-042X
CENTER_NAME    = EARTH
REF_FRAME      = TEME
TIME_SYSTEM    = UTC
MEAN_ELEMENT_THEORY = SGP/SGP4

EPOCH          = 2026-03-26T01:48:23.485248
MEAN_MOTION    = 15.75296365
ECCENTRICITY   = .0001139
INCLINATION    = 53.1595
RA_OF_ASC_NODE = 112.7172
ARG_OF_PERICENTER = 88.5707
MEAN_ANOMALY   = 271.5443

EPHEMERIS_TYPE = 0
CLASSIFICATION_TYPE = U
NORAD_CAT_ID   = 68090
ELEMENT_SET_NO = 999
REV_AT_EPOCH   = 467
BSTAR          = .10522E-2
MEAN_MOTION_DOT = .164226E-2
MEAN_MOTION_DDOT = 0

CCSDS_OMM_VERS = 2.0
CREATION_DATE  = 
ORIGINATOR     = 

OBJECT_NAME    = STARLINK-36324
OBJECT_ID      = 2026-042Y
CENTER_NAME    = EARTH
REF_FRAME      = TEME
TIME_SYSTEM    = UTC
MEAN_ELEMENT_THEORY = SGP/SGP4

EPOCH          = 2026-03-26T01:55:24.226464
MEAN_MOTION    = 15.75266302
ECCENTRICITY   = .0000912
INCLINATION    = 53.1591
RA_OF_ASC_NODE = 112.7500
ARG_OF_PERICENTER = 93.1285
MEAN_ANOMALY   = 266.9839

EPHEMERIS_TYPE = 0
CLASSIFICATION_TYPE = U
NORAD_CAT_ID   = 68091
ELEMENT_SET_NO = 999
REV_AT_EPOCH   = 467
BSTAR          = .10446E-2
MEAN_MOTION_DOT = .162794E-2
MEAN_MOTION_DDOT = 0

CCSDS_OMM_VERS = 2.0
CREATION_DATE  = 
ORIGINATOR     = 

OBJECT_NAME    = STARLINK-36896
OBJECT_ID      = 2026-042Z
CENTER_NAME    = EARTH
REF_FRAME      = TEME
TIME_SYSTEM    = UTC
MEAN_ELEMENT_THEORY = SGP/SGP4

EPOCH          = 2026-03-25T22:39:07.778592
MEAN_MOTION    = 15.75332836
ECCENTRICITY   = .0001536
INCLINATION    = 53.1598
RA_OF_ASC_NODE = 113.3181
ARG_OF_PERICENTER = 132.8674
MEAN_ANOMALY   = 227.2475

EPHEMERIS_TYPE = 0
CLASSIFICATION_TYPE = U
NORAD_CAT_ID   = 68092
ELEMENT_SET_NO = 999
REV_AT_EPOCH   = 464
BSTAR          = .14572E-2
MEAN_MOTION_DOT = .229839E-2
MEAN_MOTION_DDOT = 0

CCSDS_OMM_VERS = 2.0
CREATION_DATE  = 
ORIGINATOR     = 

OBJECT_NAME    = STARLINK-36251
OBJECT_ID      = 2026-042AA
CENTER_NAME    = EARTH
REF_FRAME      = TEME
TIME_SYSTEM    = UTC
MEAN_ELEMENT_THEORY = SGP/SGP4

EPOCH          = 2026-03-25T22:11:48.960672
MEAN_MOTION    = 15.80940044
ECCENTRICITY   = .0000716
INCLINATION    = 53.1579
RA_OF_ASC_NODE = 113.1912
ARG_OF_PERICENTER = 94.8138
MEAN_ANOMALY   = 265.2966

EPHEMERIS_TYPE = 0
CLASSIFICATION_TYPE = U
NORAD_CAT_ID   = 68093
ELEMENT_SET_NO = 999
REV_AT_EPOCH   = 464
BSTAR          = .72633E-3
MEAN_MOTION_DOT = .145546E-2
MEAN_MOTION_DDOT = 0

CCSDS_OMM_VERS = 2.0
CREATION_DATE  = 
ORIGINATOR     = 

OBJECT_NAME    = STARLINK-36787
OBJECT_ID      = 2026-042AB
CENTER_NAME    = EARTH
REF_FRAME      = TEME
TIME_SYSTEM    = UTC
MEAN_ELEMENT_THEORY = SGP/SGP4

EPOCH          = 2026-03-26T01:48:51.871104
MEAN_MOTION    = 15.75285975
ECCENTRICITY   = .0000738
INCLINATION    = 53.1597
RA_OF_ASC_NODE = 112.7193
ARG_OF_PERICENTER = 74.0109
MEAN_ANOMALY   = 286.0992

EPHEMERIS_TYPE = 0
CLASSIFICATION_TYPE = U
NORAD_CAT_ID   = 68094
ELEMENT_SET_NO = 999
REV_AT_EPOCH   = 466
BSTAR          = .14161E-2
MEAN_MOTION_DOT = .2227E-2
MEAN_MOTION_DDOT = 0

CCSDS_OMM_VERS = 2.0
CREATION_DATE  = 
ORIGINATOR     = 

OBJECT_NAME    = STARLINK-36790
OBJECT_ID      = 2026-042AC
CENTER_NAME    = EARTH
REF_FRAME      = TEME
TIME_SYSTEM    = UTC
MEAN_ELEMENT_THEORY = SGP/SGP4

EPOCH          = 2026-03-26T04:00:01.999584
MEAN_MOTION    = 15.75207513
ECCENTRICITY   = .0001159
INCLINATION    = 53.1596
RA_OF_ASC_NODE = 112.0556
ARG_OF_PERICENTER = 93.5358
MEAN_ANOMALY   = 166.4216

EPHEMERIS_TYPE = 0
CLASSIFICATION_TYPE = U
NORAD_CAT_ID   = 68095
ELEMENT_SET_NO = 999
REV_AT_EPOCH   = 469
BSTAR          = -.75302E-5
MEAN_MOTION_DOT = -.1791E-4
MEAN_MOTION_DDOT = 0

CCSDS_OMM_VERS = 2.0
CREATION_DATE  = 
ORIGINATOR     = 

OBJECT_NAME    = STARLINK-36328
OBJECT_ID      = 2026-042AD
CENTER_NAME    = EARTH
REF_FRAME      = TEME
TIME_SYSTEM    = UTC
MEAN_ELEMENT_THEORY = SGP/SGP4

EPOCH          = 2026-03-25T19:06:30.562848
MEAN_MOTION    = 15.80982870
ECCENTRICITY   = .00015516
INCLINATION    = 53.1578
RA_OF_ASC_NODE = 113.8100
ARG_OF_PERICENTER = 60.7079
MEAN_ANOMALY   = 299.4099

EPHEMERIS_TYPE = 0
CLASSIFICATION_TYPE = U
NORAD_CAT_ID   = 68096
ELEMENT_SET_NO = 999
REV_AT_EPOCH   = 462
BSTAR          = .14466185E-2
MEAN_MOTION_DOT = .296328E-2
MEAN_MOTION_DDOT = 0

CCSDS_OMM_VERS = 2.0
CREATION_DATE  = 
ORIGINATOR     = 

OBJECT_NAME    = STARLINK-36853
OBJECT_ID      = 2026-042AE
CENTER_NAME    = EARTH
REF_FRAME      = TEME
TIME_SYSTEM    = UTC
MEAN_ELEMENT_THEORY = SGP/SGP4

EPOCH          = 2026-03-25T19:08:40.119648
MEAN_MOTION    = 15.81000561
ECCENTRICITY   = .00013761
INCLINATION    = 53.1580
RA_OF_ASC_NODE = 113.8203
ARG_OF_PERICENTER = 77.7558
MEAN_ANOMALY   = 282.3619

EPHEMERIS_TYPE = 0
CLASSIFICATION_TYPE = U
NORAD_CAT_ID   = 68097
ELEMENT_SET_NO = 999
REV_AT_EPOCH   = 462
BSTAR          = .16511688E-2
MEAN_MOTION_DOT = .340358E-2
MEAN_MOTION_DDOT = 0

CCSDS_OMM_VERS = 2.0
CREATION_DATE  = 
ORIGINATOR     = 

OBJECT_NAME    = GLOBAL-34
OBJECT_ID      = 2026-043A
CENTER_NAME    = EARTH
REF_FRAME      = TEME
TIME_SYSTEM    = UTC
MEAN_ELEMENT_THEORY = SGP/SGP4

EPOCH          = 2026-03-26T02:28:38.047296
MEAN_MOTION    = 15.31789576
ECCENTRICITY   = .0004216
INCLINATION    = 42.0228
RA_OF_ASC_NODE = 340.7445
ARG_OF_PERICENTER = 33.6535
MEAN_ANOMALY   = 326.4569

EPHEMERIS_TYPE = 0
CLASSIFICATION_TYPE = U
NORAD_CAT_ID   = 68098
ELEMENT_SET_NO = 999
REV_AT_EPOCH   = 308
BSTAR          = .36125E-3
MEAN_MOTION_DOT = .11095E-3
MEAN_MOTION_DDOT = 0

CCSDS_OMM_VERS = 2.0
CREATION_DATE  = 
ORIGINATOR     = 

OBJECT_NAME    = STARLINK-37022
OBJECT_ID      = 2026-044A
CENTER_NAME    = EARTH
REF_FRAME      = TEME
TIME_SYSTEM    = UTC
MEAN_ELEMENT_THEORY = SGP/SGP4

EPOCH          = 2026-03-26T04:02:01.652352
MEAN_MOTION    = 15.75183288
ECCENTRICITY   = .0001204
INCLINATION    = 97.2833
RA_OF_ASC_NODE = 46.1142
ARG_OF_PERICENTER = 113.7488
MEAN_ANOMALY   = 246.3904

EPHEMERIS_TYPE = 0
CLASSIFICATION_TYPE = U
NORAD_CAT_ID   = 68101
ELEMENT_SET_NO = 999
REV_AT_EPOCH   = 407
BSTAR          = .30982E-3
MEAN_MOTION_DOT = .46319E-3
MEAN_MOTION_DDOT = 0

