STARLINK-37059          
1 68088U 26042V   26084.92937153  .00160959  00000+0  80126-3 0  9992
2 68088  53.1574 113.2224 0000875 114.8274 245.2840 15.80945196  4657
STARLINK-37004          
1 68089U 26042W   26085.18152227 -.00243638  00000+0 -12771-2 0  9991
2 68089  53.1574 111.9507 0000934 103.1765 256.9361 15.80683396  4691
STARLINK-36320          
1 68090U 26042X   26085.07527182  .00164226  00000+0  10522-2 0  9992
2 68090  53.1595 112.7172 0001139  88.5707 271.5443 15.75296365  4675
STARLINK-36324          
1 68091U 26042Y   26085.08014151  .00162794  00000+0  10446-2 0  9994
2 68091  53.1591 112.7500 0000912  93.1285 266.9839 15.75266302  4673
STARLINK-36896          
1 68092U 26042Z   26084.94384003  .00229839  00000+0  14572-2 0  9993
2 68092  53.1598 113.3181 0001536 132.8674 227.2475 15.75332836  4648
STARLINK-36251          
1 68093U 26042AA  26084.92487223  .00145546  00000+0  72633-3 0  9995
2 68093  53.1579 113.1912 0000716  94.8138 265.2966 15.80940044  4648
STARLINK-36787          
1 68094U 26042AB  26085.07560036  .00222700  00000+0  14161-2 0  9996
2 68094  53.1597 112.7193 0000738  74.0109 286.0992 15.75285975  4668
STARLINK-36790          
1 68095U 26042AC  26085.16668981 -.00001791  00000+0 -75302-5 0  9999
2 68095  53.1596 112.0556 0001159  93.5358 166.4216 15.75207513  4699
STARLINK-36328          
1 68096U 26042AD  26084.79618707  .00296328  00000+0  14466-2 0  9990
2 68096  53.1578 113.8100 0001551  60.7079 299.4099 15.80982870  4627
STARLINK-36853          
1 68097U 26042AE  26084.79768657  .00340358  00000+0  16512-2 0  9998
2 68097  53.1580 113.8203 0001376  77.7558 282.3619 15.81000561  4628
GLOBAL-34               
1 68098U 26043A   26085.10321814  .00011095  00000+0  36125-3 0  9992
2 68098  42.0228 340.7445 0004216  33.6535 326.4569 15.31789576  3084
STARLINK-37022          
1 68101U 26044A   26085.16807468  .00046319  00000+0  30982-3 0  9990
2 68101  97.2833  46.1142 0001204 113.7488 246.3904 15.75183288  4074
